{
  "type": "FeatureCollection",
  "name": "RU_Huamark_Master_Map",
  "features": [
    {
      "type": "Feature",
      "properties": {
        "category": "parking",
        "name": "ที่จอดรถ อาคารคณะศึกษาศาสตร์",
        "description": ""
      },
      "geometry": {
        "type": "Polygon",
        "coordinates": [
          [
            [
              100.6174596,
              13.7576215
            ],
            [
              100.6178284,
              13.7572906
            ],
            [
              100.6179182,
              13.757374
            ],
            [
              100.617768,
              13.7578664
            ],
            [
              100.6175481,
              13.7577192
            ],
            [
              100.6174596,
              13.7576215
            ]
          ]
        ]
      }
    },
    {
      "type": "Feature",
      "properties": {
        "category": "parking",
        "name": "ที่จอดรถ อาคารหอประชุมพ่อขุนราม",
        "description": ""
      },
      "geometry": {
        "type": "Polygon",
        "coordinates": [
          [
            [
              100.6187938,
              13.7581971
            ],
            [
              100.6190325,
              13.7576044
            ],
            [
              100.6191143,
              13.7576122
            ],
            [
              100.6192551,
              13.7581268
            ],
            [
              100.6187938,
              13.7581971
            ]
          ]
        ]
      }
    },
    {
      "type": "Feature",
      "properties": {
        "category": "parking",
        "name": "ที่จอดรถ อาคารอธิการบดี",
        "description": ""
      },
      "geometry": {
        "type": "Polygon",
        "coordinates": [
          [
            [
              100.6186155,
              13.7587955
            ],
            [
              100.6182575,
              13.7587017
            ],
            [
              100.6183406,
              13.7584946
            ],
            [
              100.6183916,
              13.7584308
            ],
            [
              100.6186021,
              13.7582979
            ],
            [
              100.6187657,
              13.7582471
            ],
            [
              100.6188851,
              13.7582314
            ],
            [
              100.6186155,
              13.7587955
            ]
          ]
        ]
      }
    },
    {
      "type": "Feature",
      "properties": {
        "category": "parking",
        "name": "ที่จอดรถ อาคารคณะบริหารธุรกิจ",
        "description": ""
      },
      "geometry": {
        "type": "Polygon",
        "coordinates": [
          [
            [
              100.6176419,
              13.7585168
            ],
            [
              100.6177519,
              13.757915
            ],
            [
              100.6179128,
              13.7580557
            ],
            [
              100.6180255,
              13.7583214
            ],
            [
              100.6180362,
              13.7584777
            ],
            [
              100.6179959,
              13.7586132
            ],
            [
              100.6176419,
              13.7585168
            ]
          ]
        ]
      }
    },
    {
      "type": "Feature",
      "properties": {
        "category": "parking",
        "name": "ที่จอดรถ อาคารสถาบันคอมพิวเตอร์",
        "description": ""
      },
      "geometry": {
        "type": "Polygon",
        "coordinates": [
          [
            [
              100.6149823,
              13.7560351
            ],
            [
              100.6145934,
              13.7556573
            ],
            [
              100.6147194,
              13.7555375
            ],
            [
              100.61539,
              13.7557511
            ],
            [
              100.6149823,
              13.7560351
            ]
          ]
        ]
      }
    },
    {
      "type": "Feature",
      "properties": {
        "category": "parking",
        "name": "ที่จอดรถ หน้าพระบรมราชานุสาวรีย์รามคำแหงมหาราช",
        "description": ""
      },
      "geometry": {
        "type": "Polygon",
        "coordinates": [
          [
            [
              100.6183673,
              13.7568198
            ],
            [
              100.618543,
              13.7565788
            ],
            [
              100.6185899,
              13.7566139
            ],
            [
              100.6186811,
              13.7566608
            ],
            [
              100.6188166,
              13.7566921
            ],
            [
              100.6189748,
              13.7566895
            ],
            [
              100.6189399,
              13.7567937
            ],
            [
              100.6189212,
              13.7569891
            ],
            [
              100.6183673,
              13.7568198
            ]
          ]
        ]
      }
    },
    {
      "type": "Feature",
      "properties": {
        "category": "parking",
        "name": "ที่จอดรถ อาคารนพมาศ (NMB)",
        "description": ""
      },
      "geometry": {
        "type": "Polygon",
        "coordinates": [
          [
            [
              100.6217614,
              13.7578176
            ],
            [
              100.6219035,
              13.7573617
            ],
            [
              100.6221865,
              13.7574411
            ],
            [
              100.622267,
              13.758138
            ],
            [
              100.6217614,
              13.7578176
            ]
          ]
        ]
      }
    },
    {
      "type": "Feature",
      "properties": {
        "category": "parking",
        "name": "ที่จอดรถ สาธิตรามประถม",
        "description": ""
      },
      "geometry": {
        "type": "Polygon",
        "coordinates": [
          [
            [
              100.6149624,
              13.7551937
            ],
            [
              100.6150187,
              13.7551077
            ],
            [
              100.615236,
              13.7551572
            ],
            [
              100.615523,
              13.755152
            ],
            [
              100.6156866,
              13.7551911
            ],
            [
              100.6156222,
              13.7553995
            ],
            [
              100.6149624,
              13.7551937
            ]
          ]
        ]
      }
    },
    {
      "type": "Feature",
      "properties": {
        "category": "shop",
        "name": "7-Eleven",
        "description": ""
      },
      "geometry": {
        "type": "Point",
        "coordinates": [
          100.6194799,
          13.7572514
        ]
      }
    },
    {
      "type": "Feature",
      "properties": {
        "category": "shop",
        "name": "ลุงอ้วนต้นเหรียง",
        "description": ""
      },
      "geometry": {
        "type": "Point",
        "coordinates": [
          100.6215097,
          13.7571429
        ]
      }
    },
    {
      "type": "Feature",
      "properties": {
        "category": "shop",
        "name": "Bello Cafe",
        "description": ""
      },
      "geometry": {
        "type": "Point",
        "coordinates": [
          100.6216925,
          13.7572113
        ]
      }
    },
    {
      "type": "Feature",
      "properties": {
        "category": "shop",
        "name": "Aroi Aroi Vegetarian Kitchen #33",
        "description": ""
      },
      "geometry": {
        "type": "Point",
        "coordinates": [
          100.6216272,
          13.757151
        ]
      }
    },
    {
      "type": "Feature",
      "properties": {
        "category": "shop",
        "name": "Khanom Jeen Halal Restaurant 46",
        "description": ""
      },
      "geometry": {
        "type": "Point",
        "coordinates": [
          100.6218273,
          13.7572445
        ]
      }
    },
    {
      "type": "Feature",
      "properties": {
        "category": "shop",
        "name": "ยูซุปข้าวมันไก่ ข้าวหมกไก่ ม.ราม",
        "description": ""
      },
      "geometry": {
        "type": "Point",
        "coordinates": [
          100.6218236,
          13.7571403
        ]
      }
    },
    {
      "type": "Feature",
      "properties": {
        "category": "shop",
        "name": "เฮ้ย ร้านนี้เขาว่าอร่อย (ล็อก 43)",
        "description": ""
      },
      "geometry": {
        "type": "Point",
        "coordinates": [
          100.6219334,
          13.7572151
        ]
      }
    },
    {
      "type": "Feature",
      "properties": {
        "category": "shop",
        "name": "แม่นุชกาแฟสด รามคำแหง",
        "description": ""
      },
      "geometry": {
        "type": "Point",
        "coordinates": [
          100.622038,
          13.7572696
        ]
      }
    },
    {
      "type": "Feature",
      "properties": {
        "category": "shop",
        "name": "Parabola(สาขา ม.ราม)",
        "description": ""
      },
      "geometry": {
        "type": "Point",
        "coordinates": [
          100.6220701,
          13.7571485
        ]
      }
    },
    {
      "type": "Feature",
      "properties": {
        "category": "shop",
        "name": "Parabola สาขารามคำแหง",
        "description": ""
      },
      "geometry": {
        "type": "Point",
        "coordinates": [
          100.6220701,
          13.7570853
        ]
      }
    },
    {
      "type": "Feature",
      "properties": {
        "category": "shop",
        "name": "โรงอาหารอาคารนพมาศ",
        "description": ""
      },
      "geometry": {
        "type": "Point",
        "coordinates": [
          100.6218414,
          13.7571227
        ]
      }
    },
    {
      "type": "Feature",
      "properties": {
        "category": "shop",
        "name": "39ข้าวไข่ข้น",
        "description": ""
      },
      "geometry": {
        "type": "Point",
        "coordinates": [
          100.621655,
          13.7570492
        ]
      }
    },
    {
      "type": "Feature",
      "properties": {
        "category": "shop",
        "name": "เอส.พี.ก๊อปปี้ แอนด์ เซอร์วิส",
        "description": ""
      },
      "geometry": {
        "type": "Point",
        "coordinates": [
          100.6215464,
          13.7569931
        ]
      }
    },
    {
      "type": "Feature",
      "properties": {
        "category": "shop",
        "name": "ร้านถ่ายรูป MiniStudio (สุนทร สวป.)",
        "description": ""
      },
      "geometry": {
        "type": "Point",
        "coordinates": [
          100.6201067,
          13.7583491
        ]
      }
    },
    {
      "type": "Feature",
      "properties": {
        "category": "shop",
        "name": "Gustavia Coffee สาขา มหาวิทยาลัยรามคำแหง",
        "description": ""
      },
      "geometry": {
        "type": "Point",
        "coordinates": [
          100.6219157,
          13.7595049
        ]
      }
    },
    {
      "type": "Feature",
      "properties": {
        "category": "shop",
        "name": "T-cafè 2",
        "description": ""
      },
      "geometry": {
        "type": "Point",
        "coordinates": [
          100.6173497,
          13.7573165
        ]
      }
    },
    {
      "type": "Feature",
      "properties": {
        "category": "shop",
        "name": "ขนุนคอฟฟี่",
        "description": ""
      },
      "geometry": {
        "type": "Point",
        "coordinates": [
          100.6171172,
          13.7567223
        ]
      }
    },
    {
      "type": "Feature",
      "properties": {
        "category": "shop",
        "name": "ร้านน้ำเจ๊หนิง Indy (ฝั่งสำนักฯเทคโน) Beverage shop",
        "description": ""
      },
      "geometry": {
        "type": "Point",
        "coordinates": [
          100.6166875,
          13.7560188
        ]
      }
    },
    {
      "type": "Feature",
      "properties": {
        "category": "shop",
        "name": "ร้านน้ำเจ๊หนิง (ฝั่งสนามเทนนิส) Beverage shop",
        "description": ""
      },
      "geometry": {
        "type": "Point",
        "coordinates": [
          100.6162808,
          13.7540212
        ]
      }
    },
    {
      "type": "Feature",
      "properties": {
        "category": "shop",
        "name": "T-cafè. By Thip",
        "description": ""
      },
      "geometry": {
        "type": "Point",
        "coordinates": [
          100.6181668,
          13.7549037
        ]
      }
    },
    {
      "type": "Feature",
      "properties": {
        "category": "shop",
        "name": "ร้าน ข.ไข่ ใต้ตึกนิติศาสตร์ ม.รามคำแหง",
        "description": ""
      },
      "geometry": {
        "type": "Point",
        "coordinates": [
          100.61803,
          13.7547763
        ]
      }
    },
    {
      "type": "Feature",
      "properties": {
        "category": "shop",
        "name": "Khao -Ta-Lu coffee @Sci-Ru",
        "description": ""
      },
      "geometry": {
        "type": "Point",
        "coordinates": [
          100.6191684,
          13.75424
        ]
      }
    },
    {
      "type": "Feature",
      "properties": {
        "category": "shop",
        "name": "Café Amazon มหาวิทยาลัยรามคำแหง",
        "description": ""
      },
      "geometry": {
        "type": "Point",
        "coordinates": [
          100.6200299,
          13.7541367
        ]
      }
    },
    {
      "type": "Feature",
      "properties": {
        "category": "shop",
        "name": "ร้าน​ สำราญรมย์",
        "description": ""
      },
      "geometry": {
        "type": "Point",
        "coordinates": [
          100.6201371,
          13.7535092
        ]
      }
    },
    {
      "type": "Feature",
      "properties": {
        "category": "shop",
        "name": "coffee & tea store",
        "description": ""
      },
      "geometry": {
        "type": "Point",
        "coordinates": [
          100.6204123,
          13.754602
        ]
      }
    },
    {
      "type": "Feature",
      "properties": {
        "category": "orther",
        "name": "สนามกีฬา มหาวิทยาลัยรามคำแหง",
        "description": ""
      },
      "geometry": {
        "type": "Point",
        "coordinates": [
          100.6164882,
          13.754883
        ]
      }
    },
    {
      "type": "Feature",
      "properties": {
        "category": "orther",
        "name": "สนามเทนนิส มหาวิทยาลัยรามคำแหง",
        "description": ""
      },
      "geometry": {
        "type": "Point",
        "coordinates": [
          100.6157937,
          13.7542986
        ]
      }
    },
    {
      "type": "Feature",
      "properties": {
        "category": "orther",
        "name": "King Ramkhamhaeng Monument",
        "description": ""
      },
      "geometry": {
        "type": "Point",
        "coordinates": [
          100.6188809,
          13.7562493
        ]
      }
    },
    {
      "type": "Feature",
      "properties": {
        "category": "orther",
        "name": "ศาลาไทยประยุกต์ (Thai Traditional - Modern Hybrid Style Pavilion)",
        "description": ""
      },
      "geometry": {
        "type": "Point",
        "coordinates": [
          100.6159965,
          13.7571719
        ]
      }
    },
    {
      "type": "Feature",
      "properties": {
        "category": "orther",
        "name": "RU Clock Tower",
        "description": ""
      },
      "geometry": {
        "type": "Point",
        "coordinates": [
          100.6180136,
          13.7589089
        ]
      }
    },
    {
      "type": "Feature",
      "properties": {
        "category": "orther",
        "name": "Ramkhamhaeng University MRT Orange Line Station",
        "description": ""
      },
      "geometry": {
        "type": "Point",
        "coordinates": [
          100.6172042,
          13.7586041
        ]
      }
    },
    {
      "type": "Feature",
      "properties": {
        "category": "orther",
        "name": "สนามเปตอง ม.ร.",
        "description": ""
      },
      "geometry": {
        "type": "Point",
        "coordinates": [
          100.617136,
          13.7552947
        ]
      }
    },
    {
      "type": "Feature",
      "properties": {
        "category": "building",
        "name": "KLB (อาคารกงไกรลาศ)",
        "description": "Kong Krailat Building"
      },
      "geometry": {
        "type": "Polygon",
        "coordinates": [
          [
            [
              100.619765,
              13.759254
            ],
            [
              100.619603,
              13.7589
            ],
            [
              100.620162,
              13.75866
            ],
            [
              100.620323,
              13.759014
            ],
            [
              100.619765,
              13.759254
            ]
          ]
        ]
      }
    },
    {
      "type": "Feature",
      "properties": {
        "category": "building",
        "name": "AOB (สำนักบริการทางวิชาการ สวป.)",
        "description": "Admissions and Records Office"
      },
      "geometry": {
        "type": "Polygon",
        "coordinates": [
          [
            [
              100.619518,
              13.758616
            ],
            [
              100.619464,
              13.758486
            ],
            [
              100.61949,
              13.758476
            ],
            [
              100.619431,
              13.758334
            ],
            [
              100.619551,
              13.758287
            ],
            [
              100.61961,
              13.75843
            ],
            [
              100.619983,
              13.758284
            ],
            [
              100.620037,
              13.758415
            ],
            [
              100.619518,
              13.758616
            ]
          ]
        ]
      }
    },
    {
      "type": "Feature",
      "properties": {
        "category": "building",
        "name": "VPB (อาคารเวียงผา)",
        "description": "Viang Pha Building"
      },
      "geometry": {
        "type": "Polygon",
        "coordinates": [
          [
            [
              100.621192,
              13.75912
            ],
            [
              100.620954,
              13.758849
            ],
            [
              100.621269,
              13.758589
            ],
            [
              100.621506,
              13.758859
            ],
            [
              100.621192,
              13.75912
            ]
          ]
        ]
      }
    },
    {
      "type": "Feature",
      "properties": {
        "category": "building",
        "name": "VKB (อาคารเวียงคำ)",
        "description": "Viang Kham Building"
      },
      "geometry": {
        "type": "Polygon",
        "coordinates": [
          [
            [
              100.620048,
              13.757959
            ],
            [
              100.620468,
              13.757592
            ],
            [
              100.62073,
              13.757876
            ],
            [
              100.62031,
              13.758242
            ],
            [
              100.620048,
              13.757959
            ]
          ]
        ]
      }
    },
    {
      "type": "Feature",
      "properties": {
        "category": "building",
        "name": "POB (คณะรัฐศาสตร์)",
        "description": "Faculty of Political Science"
      },
      "geometry": {
        "type": "Polygon",
        "coordinates": [
          [
            [
              100.620859,
              13.757295
            ],
            [
              100.620835,
              13.757361
            ],
            [
              100.62079,
              13.757414
            ],
            [
              100.621014,
              13.757587
            ],
            [
              100.620996,
              13.757611
            ],
            [
              100.621,
              13.757627
            ],
            [
              100.620984,
              13.757647
            ],
            [
              100.620953,
              13.757627
            ],
            [
              100.620941,
              13.757646
            ],
            [
              100.620956,
              13.757658
            ],
            [
              100.620908,
              13.757717
            ],
            [
              100.620873,
              13.75769
            ],
            [
              100.620863,
              13.7577
            ],
            [
              100.620649,
              13.757534
            ],
            [
              100.620694,
              13.757478
            ],
            [
              100.620688,
              13.757474
            ],
            [
              100.620651,
              13.757518
            ],
            [
              100.620581,
              13.757459
            ],
            [
              100.62063,
              13.757398
            ],
            [
              100.620657,
              13.757419
            ],
            [
              100.620675,
              13.757393
            ],
            [
              100.620655,
              13.757394
            ],
            [
              100.62062,
              13.757363
            ],
            [
              100.62064,
              13.757343
            ],
            [
              100.620666,
              13.757357
            ],
            [
              100.620687,
              13.757348
            ],
            [
              100.62072,
              13.757306
            ],
            [
              100.620745,
              13.75725
            ],
            [
              100.620746,
              13.75721
            ],
            [
              100.620775,
              13.757117
            ],
            [
              100.621186,
              13.757229
            ],
            [
              100.621157,
              13.757298
            ],
            [
              100.621177,
              13.757302
            ],
            [
              100.621169,
              13.757324
            ],
            [
              100.621147,
              13.757327
            ],
            [
              100.621131,
              13.757384
            ],
            [
              100.621078,
              13.757374
            ],
            [
              100.621091,
              13.757321
            ],
            [
              100.620865,
              13.757251
            ],
            [
              100.620859,
              13.757295
            ]
          ]
        ]
      }
    },
    {
      "type": "Feature",
      "properties": {
        "category": "building",
        "name": "NMB (อาคารนพมาศ)",
        "description": "Noppamat Building"
      },
      "geometry": {
        "type": "Polygon",
        "coordinates": [
          [
            [
              100.62142,
              13.757101
            ],
            [
              100.621479,
              13.756906
            ],
            [
              100.622113,
              13.75708
            ],
            [
              100.622023,
              13.757309
            ],
            [
              100.62142,
              13.757101
            ]
          ]
        ]
      }
    },
    {
      "type": "Feature",
      "properties": {
        "category": "building",
        "name": "LIB (สำนักหอสมุดกลาง)",
        "description": "Central Library"
      },
      "geometry": {
        "type": "Polygon",
        "coordinates": [
          [
            [
              100.618046,
              13.75627
            ],
            [
              100.618069,
              13.756334
            ],
            [
              100.618052,
              13.756338
            ],
            [
              100.618079,
              13.756408
            ],
            [
              100.618064,
              13.756413
            ],
            [
              100.618082,
              13.756472
            ],
            [
              100.618097,
              13.756471
            ],
            [
              100.61812,
              13.756484
            ],
            [
              100.618163,
              13.756473
            ],
            [
              100.618205,
              13.756454
            ],
            [
              100.618186,
              13.756351
            ],
            [
              100.618227,
              13.756342
            ],
            [
              100.618246,
              13.756483
            ],
            [
              100.618284,
              13.756638
            ],
            [
              100.618247,
              13.756642
            ],
            [
              100.618218,
              13.756515
            ],
            [
              100.618174,
              13.756519
            ],
            [
              100.61813,
              13.756532
            ],
            [
              100.618113,
              13.75657
            ],
            [
              100.618101,
              13.756572
            ],
            [
              100.61811,
              13.756616
            ],
            [
              100.61812,
              13.756615
            ],
            [
              100.618129,
              13.756657
            ],
            [
              100.618145,
              13.756654
            ],
            [
              100.61816,
              13.756719
            ],
            [
              100.618106,
              13.756731
            ],
            [
              100.6181,
              13.756706
            ],
            [
              100.618056,
              13.75672
            ],
            [
              100.61807,
              13.756774
            ],
            [
              100.618053,
              13.75678
            ],
            [
              100.618065,
              13.756815
            ],
            [
              100.618029,
              13.756825
            ],
            [
              100.618042,
              13.756862
            ],
            [
              100.617999,
              13.756874
            ],
            [
              100.617987,
              13.756837
            ],
            [
              100.617963,
              13.756845
            ],
            [
              100.617986,
              13.756915
            ],
            [
              100.617921,
              13.756934
            ],
            [
              100.617929,
              13.756954
            ],
            [
              100.617817,
              13.756986
            ],
            [
              100.617808,
              13.756962
            ],
            [
              100.617738,
              13.75698
            ],
            [
              100.617722,
              13.75692
            ],
            [
              100.617703,
              13.756925
            ],
            [
              100.617678,
              13.756816
            ],
            [
              100.617697,
              13.756813
            ],
            [
              100.61769,
              13.756788
            ],
            [
              100.61779,
              13.756767
            ],
            [
              100.617788,
              13.756752
            ],
            [
              100.617695,
              13.756769
            ],
            [
              100.617675,
              13.756691
            ],
            [
              100.617704,
              13.756684
            ],
            [
              100.61766,
              13.756486
            ],
            [
              100.617632,
              13.756491
            ],
            [
              100.617615,
              13.756414
            ],
            [
              100.617703,
              13.756395
            ],
            [
              100.617698,
              13.756377
            ],
            [
              100.617616,
              13.756399
            ],
            [
              100.617613,
              13.756382
            ],
            [
              100.617589,
              13.756386
            ],
            [
              100.617564,
              13.756268
            ],
            [
              100.617583,
              13.756264
            ],
            [
              100.617573,
              13.756212
            ],
            [
              100.617603,
              13.756205
            ],
            [
              100.617623,
              13.756201
            ],
            [
              100.617706,
              13.756184
            ],
            [
              100.617713,
              13.756212
            ],
            [
              100.61778,
              13.756198
            ],
            [
              100.617797,
              13.756254
            ],
            [
              100.617812,
              13.756248
            ],
            [
              100.617803,
              13.756217
            ],
            [
              100.617837,
              13.756206
            ],
            [
              100.617848,
              13.756237
            ],
            [
              100.617875,
              13.756227
            ],
            [
              100.61788,
              13.756246
            ],
            [
              100.617912,
              13.756237
            ],
            [
              100.617919,
              13.756255
            ],
            [
              100.617939,
              13.75625
            ],
            [
              100.617949,
              13.756281
            ],
            [
              100.617926,
              13.756288
            ],
            [
              100.617935,
              13.756314
            ],
            [
              100.617983,
              13.756302
            ],
            [
              100.617978,
              13.756289
            ],
            [
              100.618046,
              13.75627
            ]
          ]
        ]
      }
    },
    {
      "type": "Feature",
      "properties": {
        "category": "building",
        "name": "HUB (คณะมนุษยศาสตร์)",
        "description": "Faculty of Humanities"
      },
      "geometry": {
        "type": "Polygon",
        "coordinates": [
          [
            [
              100.618919,
              13.755392
            ],
            [
              100.619014,
              13.755098
            ],
            [
              100.619088,
              13.75512
            ],
            [
              100.619119,
              13.755022
            ],
            [
              100.619509,
              13.755142
            ],
            [
              100.619473,
              13.755252
            ],
            [
              100.61935,
              13.755215
            ],
            [
              100.619259,
              13.755496
            ],
            [
              100.618919,
              13.755392
            ]
          ]
        ]
      }
    },
    {
      "type": "Feature",
      "properties": {
        "category": "building",
        "name": "ECB (คณะเศรษฐศาสตร์)",
        "description": "Faculty of Economics"
      },
      "geometry": {
        "type": "Polygon",
        "coordinates": [
          [
            [
              100.615688,
              13.755549
            ],
            [
              100.616151,
              13.755676
            ],
            [
              100.616099,
              13.755855
            ],
            [
              100.615636,
              13.755728
            ],
            [
              100.615688,
              13.755549
            ]
          ]
        ]
      }
    },
    {
      "type": "Feature",
      "properties": {
        "category": "building",
        "name": "ECB 2 (คณะเศรษฐศาสตร์ 2)",
        "description": "Faculty of Economics Building 2"
      },
      "geometry": {
        "type": "Polygon",
        "coordinates": [
          [
            [
              100.615383,
              13.755876
            ],
            [
              100.615538,
              13.756045
            ],
            [
              100.61548,
              13.756098
            ],
            [
              100.615478,
              13.756232
            ],
            [
              100.615535,
              13.756289
            ],
            [
              100.615364,
              13.756436
            ],
            [
              100.61522,
              13.75628
            ],
            [
              100.615232,
              13.756006
            ],
            [
              100.615383,
              13.755876
            ]
          ]
        ]
      }
    },
    {
      "type": "Feature",
      "properties": {
        "category": "building",
        "name": "SCO (คณะวิทยาศาสตร์)",
        "description": "Faculty of Science"
      },
      "geometry": {
        "type": "Polygon",
        "coordinates": [
          [
            [
              100.618914,
              13.754701
            ],
            [
              100.618992,
              13.754464
            ],
            [
              100.619832,
              13.754725
            ],
            [
              100.619754,
              13.754962
            ],
            [
              100.618914,
              13.754701
            ]
          ]
        ]
      }
    },
    {
      "type": "Feature",
      "properties": {
        "category": "building",
        "name": "SCL (อาคารปฏิบัติการวิทยาศาสตร์)",
        "description": "Science Laboratory Building"
      },
      "geometry": {
        "type": "Polygon",
        "coordinates": [
          [
            [
              100.619138,
              13.754184
            ],
            [
              100.619231,
              13.753942
            ],
            [
              100.620176,
              13.754284
            ],
            [
              100.620084,
              13.754526
            ],
            [
              100.619138,
              13.754184
            ]
          ]
        ]
      }
    },
    {
      "type": "Feature",
      "properties": {
        "category": "building",
        "name": "LTB (อาคารลายสือไท)",
        "description": "Laisue Thai Building / Engineering"
      },
      "geometry": {
        "type": "Polygon",
        "coordinates": [
          [
            [
              100.620129,
              13.754643
            ],
            [
              100.620291,
              13.754174
            ],
            [
              100.620895,
              13.754362
            ],
            [
              100.620707,
              13.75487
            ],
            [
              100.620129,
              13.754643
            ]
          ]
        ]
      }
    },
    {
      "type": "Feature",
      "properties": {
        "category": "building",
        "name": "SKB (อาคารสุโขทัย)",
        "description": "Sukhothai Building"
      },
      "geometry": {
        "type": "Polygon",
        "coordinates": [
          [
            [
              100.615726,
              13.7564207
            ],
            [
              100.615805,
              13.7561597
            ],
            [
              100.616167,
              13.7562647
            ],
            [
              100.616087,
              13.7565247
            ],
            [
              100.615726,
              13.7564207
            ]
          ]
        ]
      }
    },
    {
      "type": "Feature",
      "properties": {
        "category": "building",
        "name": "TCB (อาคารทับแก้ว)",
        "description": "Thap Kaeo Building"
      },
      "geometry": {
        "type": "Polygon",
        "coordinates": [
          [
            [
              100.6163589,
              13.756308
            ],
            [
              100.6166709,
              13.756412
            ],
            [
              100.6165819,
              13.756665
            ],
            [
              100.6162689,
              13.756561
            ],
            [
              100.6163589,
              13.756308
            ]
          ]
        ]
      }
    },
    {
      "type": "Feature",
      "properties": {
        "category": "building",
        "name": "SSB (อาคารศรีสัชนาลัย คณะบริหารธุรกิจ)",
        "description": "Faculty of Business Administration"
      },
      "geometry": {
        "type": "Polygon",
        "coordinates": [
          [
            [
              100.617548,
              13.758314
            ],
            [
              100.617403,
              13.758294
            ],
            [
              100.617419,
              13.758187
            ],
            [
              100.617304,
              13.758171
            ],
            [
              100.617288,
              13.758278
            ],
            [
              100.617137,
              13.758256
            ],
            [
              100.617191,
              13.757889
            ],
            [
              100.617345,
              13.75791
            ],
            [
              100.617351,
              13.757861
            ],
            [
              100.617464,
              13.757874
            ],
            [
              100.617458,
              13.757926
            ],
            [
              100.617602,
              13.757946
            ],
            [
              100.617548,
              13.758314
            ]
          ]
        ]
      }
    },
    {
      "type": "Feature",
      "properties": {
        "category": "building",
        "name": "SBB (อาคารศิลาบาตร)",
        "description": "Sila Bat Building"
      },
      "geometry": {
        "type": "Polygon",
        "coordinates": [
          [
            [
              100.619401,
              13.757364
            ],
            [
              100.619186,
              13.757098
            ],
            [
              100.619242,
              13.757055
            ],
            [
              100.619281,
              13.757099
            ],
            [
              100.619665,
              13.7568
            ],
            [
              100.619631,
              13.756757
            ],
            [
              100.61969,
              13.756712
            ],
            [
              100.619905,
              13.756977
            ],
            [
              100.619847,
              13.757022
            ],
            [
              100.61982,
              13.756988
            ],
            [
              100.619433,
              13.757284
            ],
            [
              100.619458,
              13.75732
            ],
            [
              100.619401,
              13.757364
            ]
          ]
        ]
      }
    },
    {
      "type": "Feature",
      "properties": {
        "category": "building",
        "name": "SLB (อาคารสระหลวง)",
        "description": "Sa Luang Building"
      },
      "geometry": {
        "type": "Polygon",
        "coordinates": [
          [
            [
              100.619778,
              13.753482
            ],
            [
              100.619836,
              13.753335
            ],
            [
              100.620383,
              13.753541
            ],
            [
              100.620324,
              13.753688
            ],
            [
              100.619778,
              13.753482
            ]
          ]
        ]
      }
    },
    {
      "type": "Feature",
      "properties": {
        "category": "building",
        "name": "SWB (อาคารสวรรคโลก)",
        "description": "Sawankhalok Building"
      },
      "geometry": {
        "type": "Polygon",
        "coordinates": [
          [
            [
              100.618353,
              13.754864
            ],
            [
              100.618353,
              13.754451
            ],
            [
              100.618646,
              13.754451
            ],
            [
              100.618646,
              13.754864
            ],
            [
              100.618353,
              13.754864
            ]
          ]
        ]
      }
    },
    {
      "type": "Feature",
      "properties": {
        "category": "building",
        "name": "LWB: คณะนิติศาสตร์ (Faculty of Law)",
        "description": "Lecture Hall 1"
      },
      "geometry": {
        "type": "Polygon",
        "coordinates": [
          [
            [
              100.618059,
              13.755361
            ],
            [
              100.618322,
              13.755157
            ],
            [
              100.618372,
              13.755218
            ],
            [
              100.618312,
              13.755264
            ],
            [
              100.618511,
              13.755508
            ],
            [
              100.61858,
              13.755454
            ],
            [
              100.618644,
              13.755532
            ],
            [
              100.618375,
              13.755741
            ],
            [
              100.618315,
              13.755668
            ],
            [
              100.618364,
              13.75563
            ],
            [
              100.618164,
              13.755387
            ],
            [
              100.618113,
              13.755426
            ],
            [
              100.618059,
              13.755361
            ]
          ]
        ]
      }
    },
    {
      "type": "Feature",
      "properties": {
        "category": "building",
        "name": "LWB 2: อาคารคณะนิติศาสตร์ 2 (Faculty of Law Building 2)",
        "description": "Lecture Hall 2"
      },
      "geometry": {
        "type": "Polygon",
        "coordinates": [
          [
            [
              100.6178,
              13.755282
            ],
            [
              100.617488,
              13.754896
            ],
            [
              100.617962,
              13.754534
            ],
            [
              100.618274,
              13.75492
            ],
            [
              100.6178,
              13.755282
            ]
          ]
        ]
      }
    },
    {
      "type": "Feature",
      "properties": {
        "category": "building",
        "name": "PMB (สำนักเทคโนโลยีการศึกษา)",
        "description": "Office of Educational Technology"
      },
      "geometry": {
        "type": "Polygon",
        "coordinates": [
          [
            [
              100.616334,
              13.755741
            ],
            [
              100.616762,
              13.755864
            ],
            [
              100.616717,
              13.756011
            ],
            [
              100.616289,
              13.755888
            ],
            [
              100.616334,
              13.755741
            ]
          ]
        ]
      }
    },
    {
      "type": "Feature",
      "properties": {
        "category": "building",
        "name": "CIB: สถาบันคอมพิวเตอร์ (Computer Institute)",
        "description": ""
      },
      "geometry": {
        "type": "Polygon",
        "coordinates": [
          [
            [
              100.6144084,
              13.7558758
            ],
            [
              100.6146122,
              13.7556882
            ],
            [
              100.6149448,
              13.7559618
            ],
            [
              100.6146927,
              13.7561702
            ],
            [
              100.6144084,
              13.7558758
            ]
          ]
        ]
      }
    },
    {
      "type": "Feature",
      "properties": {
        "category": "building",
        "name": "GB 2: โรงพลศึกษา (โรงยิม 2) (Gymnasium Building 2)",
        "description": ""
      },
      "geometry": {
        "type": "Polygon",
        "coordinates": [
          [
            [
              100.6148958,
              13.7555873
            ],
            [
              100.6149816,
              13.755319
            ],
            [
              100.6154859,
              13.7554623
            ],
            [
              100.6154108,
              13.7557332
            ],
            [
              100.6148958,
              13.7555873
            ]
          ]
        ]
      }
    },
    {
      "type": "Feature",
      "properties": {
        "category": "building",
        "name": "TCB: อาคารทับแก้ว (Thap Kaeo Building)",
        "description": ""
      },
      "geometry": {
        "type": "Polygon",
        "coordinates": [
          [
            [
              100.6165768,
              13.7570282
            ],
            [
              100.6167458,
              13.7569657
            ],
            [
              100.6169604,
              13.7573773
            ],
            [
              100.6167753,
              13.7574398
            ],
            [
              100.6165768,
              13.7570282
            ]
          ]
        ]
      }
    },
    {
      "type": "Feature",
      "properties": {
        "category": "building",
        "name": "SSB 2: อาคารคณะบริหารธุรกิจ 2 (Faculty of Business Administration Building 2)",
        "description": ""
      },
      "geometry": {
        "type": "Polygon",
        "coordinates": [
          [
            [
              100.6168135,
              13.758211
            ],
            [
              100.6169288,
              13.7578932
            ],
            [
              100.6167598,
              13.7575206
            ],
            [
              100.6169744,
              13.7574243
            ],
            [
              100.6171622,
              13.7578619
            ],
            [
              100.6170468,
              13.7582657
            ],
            [
              100.6168135,
              13.758211
            ]
          ]
        ]
      }
    },
    {
      "type": "Feature",
      "properties": {
        "category": "building",
        "name": "EOB: คณะศึกษาศาสตร์ (Faculty of Education)",
        "description": ""
      },
      "geometry": {
        "type": "Polygon",
        "coordinates": [
          [
            [
              100.6173905,
              13.7574224
            ],
            [
              100.6172537,
              13.7572608
            ],
            [
              100.6175756,
              13.7570472
            ],
            [
              100.617707,
              13.7572218
            ],
            [
              100.6173905,
              13.7574224
            ]
          ]
        ]
      }
    },
    {
      "type": "Feature",
      "properties": {
        "category": "building",
        "name": "NCB: อาคารนเรนทรนุกูล (Narenthorn Nukun Building)",
        "description": ""
      },
      "geometry": {
        "type": "Polygon",
        "coordinates": [
          [
            [
              100.6171159,
              13.7570874
            ],
            [
              100.6171105,
              13.7571057
            ],
            [
              100.616955,
              13.7566862
            ],
            [
              100.6173037,
              13.7565586
            ],
            [
              100.6173439,
              13.756681
            ],
            [
              100.61714,
              13.7567592
            ],
            [
              100.6172607,
              13.7570197
            ],
            [
              100.6171159,
              13.7570874
            ]
          ]
        ]
      }
    },
    {
      "type": "Feature",
      "properties": {
        "category": "building",
        "name": "SIB: สำนักงานสภาอาจารย์ (Faculty Senate)",
        "description": ""
      },
      "geometry": {
        "type": "Polygon",
        "coordinates": [
          [
            [
              100.6170902,
              13.7562743
            ],
            [
              100.6170929,
              13.7560554
            ],
            [
              100.6173316,
              13.7560789
            ],
            [
              100.6173155,
              13.7562925
            ],
            [
              100.6170714,
              13.7562743
            ],
            [
              100.6170902,
              13.7562743
            ]
          ]
        ]
      }
    },
    {
      "type": "Feature",
      "properties": {
        "category": "building",
        "name": "SCB: อาคารศรีชุม (Si Chum Building)",
        "description": ""
      },
      "geometry": {
        "type": "Polygon",
        "coordinates": [
          [
            [
              100.6170669,
              13.7554591
            ],
            [
              100.617374,
              13.7550123
            ],
            [
              100.6177562,
              13.7553419
            ],
            [
              100.6175765,
              13.7556832
            ],
            [
              100.6170669,
              13.7554591
            ]
          ]
        ]
      }
    },
    {
      "type": "Feature",
      "properties": {
        "category": "building",
        "name": "NB: อาคารบรรยาย NB",
        "description": ""
      },
      "geometry": {
        "type": "Polygon",
        "coordinates": [
          [
            [
              100.6154751,
              13.7547892
            ],
            [
              100.6151949,
              13.7550562
            ],
            [
              100.6150353,
              13.7548973
            ],
            [
              100.6153316,
              13.7546302
            ],
            [
              100.6154751,
              13.7547892
            ]
          ]
        ]
      }
    },
    {
      "type": "Feature",
      "properties": {
        "category": "building",
        "name": "DSE 2 : โรงเรียนสาธิตมหาวิทยาลัยรามคำแหง (ฝ่ายประถม) (Demonstration School - Elementary Level)",
        "description": ""
      },
      "geometry": {
        "type": "Polygon",
        "coordinates": [
          [
            [
              100.6149547,
              13.7547412
            ],
            [
              100.6148192,
              13.7545979
            ],
            [
              100.6149614,
              13.7544572
            ],
            [
              100.6151022,
              13.754594
            ],
            [
              100.6149547,
              13.7547412
            ]
          ]
        ]
      }
    },
    {
      "type": "Feature",
      "properties": {
        "category": "building",
        "name": "DSE 1: โรงเรียนสาธิตมหาวิทยาลัยรามคำแหง (ฝ่ายประถม) (Demonstration School - Elementary Level)",
        "description": ""
      },
      "geometry": {
        "type": "Polygon",
        "coordinates": [
          [
            [
              100.6138907,
              13.7554138
            ],
            [
              100.6146363,
              13.754713
            ],
            [
              100.6148026,
              13.7548693
            ],
            [
              100.6140275,
              13.755544
            ],
            [
              100.6138907,
              13.7554138
            ]
          ]
        ]
      }
    },
    {
      "type": "Feature",
      "properties": {
        "category": "building",
        "name": "SLB: อาคารสระหลวง (Sa Luang Building)",
        "description": ""
      },
      "geometry": {
        "type": "Polygon",
        "coordinates": [
          [
            [
              100.6151934,
              13.7543526
            ],
            [
              100.6155502,
              13.7540178
            ],
            [
              100.6156695,
              13.7541259
            ],
            [
              100.6153074,
              13.7544724
            ],
            [
              100.6151934,
              13.7543526
            ]
          ]
        ]
      }
    },
    {
      "type": "Feature",
      "properties": {
        "category": "building",
        "name": "GB 4: โรงพลศึกษา (โรงยิม 4) (Gymnasium Building 4)",
        "description": ""
      },
      "geometry": {
        "type": "Polygon",
        "coordinates": [
          [
            [
              100.616048,
              13.7538095
            ],
            [
              100.6164369,
              13.7534552
            ],
            [
              100.6166542,
              13.7536506
            ],
            [
              100.6162808,
              13.7540212
            ],
            [
              100.616048,
              13.7538095
            ]
          ]
        ]
      }
    },
    {
      "type": "Feature",
      "properties": {
        "category": "building",
        "name": "SOB: อาคารสำนักงานการกีฬา (Sports Office)",
        "description": ""
      },
      "geometry": {
        "type": "Polygon",
        "coordinates": [
          [
            [
              100.6174664,
              13.754305
            ],
            [
              100.6175979,
              13.7539454
            ],
            [
              100.6183596,
              13.7542242
            ],
            [
              100.6178715,
              13.7544847
            ],
            [
              100.6174664,
              13.754305
            ]
          ]
        ]
      }
    },
    {
      "type": "Feature",
      "properties": {
        "category": "building",
        "name": "BPB: อาคารเบญจพรรณ (Bekphan Building)",
        "description": ""
      },
      "geometry": {
        "type": "Polygon",
        "coordinates": [
          [
            [
              100.6167199,
              13.7528547
            ],
            [
              100.6173878,
              13.7522737
            ],
            [
              100.6176292,
              13.7524743
            ],
            [
              100.6169318,
              13.7530474
            ],
            [
              100.6167199,
              13.7528547
            ]
          ]
        ]
      }
    },
    {
      "type": "Feature",
      "properties": {
        "category": "building",
        "name": "KMB: อาคารคีรีมาศ (Khiri Mat Building)",
        "description": ""
      },
      "geometry": {
        "type": "Polygon",
        "coordinates": [
          [
            [
              100.6169716,
              13.7535459
            ],
            [
              100.6171325,
              13.7531369
            ],
            [
              100.6178299,
              13.753413
            ],
            [
              100.6176314,
              13.7538169
            ],
            [
              100.6169474,
              13.7535537
            ],
            [
              100.6169716,
              13.7535459
            ]
          ]
        ]
      }
    },
    {
      "type": "Feature",
      "properties": {
        "category": "building",
        "name": "DS (DS 1, DS 2): โรงเรียนสาธิตมหาวิทยาลัยรามคำแหง (ฝ่ายมัธยม) (Ramkhamhaeng University Demonstration School)",
        "description": ""
      },
      "geometry": {
        "type": "Polygon",
        "coordinates": [
          [
            [
              100.6176904,
              13.7538143
            ],
            [
              100.617905,
              13.7533714
            ],
            [
              100.6172586,
              13.7530639
            ],
            [
              100.6178111,
              13.7524621
            ],
            [
              100.6194687,
              13.7531734
            ],
            [
              100.619053,
              13.7543145
            ],
            [
              100.6176904,
              13.7538143
            ]
          ]
        ]
      }
    },
    {
      "type": "Feature",
      "properties": {
        "category": "building",
        "name": "GB 1: โรงพลศึกษา (โรงยิม 1) (Gymnasium Building 1)",
        "description": ""
      },
      "geometry": {
        "type": "Polygon",
        "coordinates": [
          [
            [
              100.6204898,
              13.7537864
            ],
            [
              100.6206131,
              13.7534425
            ],
            [
              100.621104,
              13.7536144
            ],
            [
              100.6209806,
              13.7539531
            ],
            [
              100.6204898,
              13.7537864
            ]
          ]
        ]
      }
    },
    {
      "type": "Feature",
      "properties": {
        "category": "building",
        "name": "STB: ภาควิชาสถิติ คณะวิทยาศาสตร์ (Department of Statistics Building)",
        "description": ""
      },
      "geometry": {
        "type": "Polygon",
        "coordinates": [
          [
            [
              100.6200445,
              13.7550593
            ],
            [
              100.6200445,
              13.755041
            ],
            [
              100.6200874,
              13.7549524
            ],
            [
              100.6205649,
              13.7551348
            ],
            [
              100.620522,
              13.7552338
            ],
            [
              100.6200445,
              13.7550593
            ]
          ]
        ]
      }
    },
    {
      "type": "Feature",
      "properties": {
        "category": "building",
        "name": "TTM: อาคารที่ทำการสาขาวิชาการแพทย์แผนไทย (Thai Traditional Medicine Building)",
        "description": ""
      },
      "geometry": {
        "type": "Polygon",
        "coordinates": [
          [
            [
              100.6199453,
              13.755299
            ],
            [
              100.6200365,
              13.7551088
            ],
            [
              100.6205112,
              13.7552755
            ],
            [
              100.6204281,
              13.7554657
            ],
            [
              100.6199453,
              13.755299
            ]
          ]
        ]
      }
    },
    {
      "type": "Feature",
      "properties": {
        "category": "building",
        "name": "POB 2: อาคารคณะรัฐศาสตร์ 2 (Faculty of Political Science Building 2)",
        "description": ""
      },
      "geometry": {
        "type": "Polygon",
        "coordinates": [
          [
            [
              100.6211942,
              13.7577734
            ],
            [
              100.6213109,
              13.7574282
            ],
            [
              100.6214464,
              13.757462
            ],
            [
              100.6215107,
              13.7573018
            ],
            [
              100.6218071,
              13.7573943
            ],
            [
              100.6216287,
              13.7579166
            ],
            [
              100.6211942,
              13.7577734
            ]
          ]
        ]
      }
    },
    {
      "type": "Feature",
      "properties": {
        "category": "building",
        "name": "SAB: อาคารกิจกรรมนักศึกษา (Student Activities Building)",
        "description": ""
      },
      "geometry": {
        "type": "Polygon",
        "coordinates": [
          [
            [
              100.620021,
              13.7570957
            ],
            [
              100.6201739,
              13.756826
            ],
            [
              100.6206929,
              13.7569824
            ],
            [
              100.6204488,
              13.757407
            ],
            [
              100.620021,
              13.7570957
            ]
          ]
        ]
      }
    },
    {
      "type": "Feature",
      "properties": {
        "category": "building",
        "name": "KRA: อาคารหอประชุมพ่อขุนรามคำแหงมหาราช (The Great Auditorium)",
        "description": ""
      },
      "geometry": {
        "type": "Polygon",
        "coordinates": [
          [
            [
              100.6193535,
              13.7580494
            ],
            [
              100.6192355,
              13.7576716
            ],
            [
              100.6199705,
              13.757273
            ],
            [
              100.6202333,
              13.7575752
            ],
            [
              100.6193723,
              13.7580598
            ],
            [
              100.6193535,
              13.7580494
            ]
          ]
        ]
      }
    },
    {
      "type": "Feature",
      "properties": {
        "category": "building",
        "name": "CPB: อาคารจอดรถ (Car Park Building)",
        "description": ""
      },
      "geometry": {
        "type": "Polygon",
        "coordinates": [
          [
            [
              100.6206204,
              13.7588888
            ],
            [
              100.6204085,
              13.7585162
            ],
            [
              100.6209798,
              13.7579952
            ],
            [
              100.6213419,
              13.7582817
            ],
            [
              100.6206204,
              13.7588888
            ]
          ]
        ]
      }
    },
    {
      "type": "Feature",
      "properties": {
        "category": "building",
        "name": "ราม ไชยา, ซุ้มนักศึกษา",
        "description": ""
      },
      "geometry": {
        "type": "Polygon",
        "coordinates": [
          [
            [
              100.6215264,
              13.7582391
            ],
            [
              100.6217624,
              13.7578535
            ],
            [
              100.6222452,
              13.7581244
            ],
            [
              100.6219341,
              13.7585491
            ],
            [
              100.6215264,
              13.7582391
            ]
          ]
        ]
      }
    },
    {
      "type": "Feature",
      "properties": {
        "category": "building",
        "name": "SAS: อาคารศิษย์เก่า / ศิลาอักษร (Si Akson Building/Alumni Room)",
        "description": ""
      },
      "geometry": {
        "type": "Polygon",
        "coordinates": [
          [
            [
              100.6203444,
              13.7591888
            ],
            [
              100.6205483,
              13.7590637
            ],
            [
              100.6208218,
              13.7595275
            ],
            [
              100.6206019,
              13.7596265
            ],
            [
              100.6203444,
              13.7591888
            ]
          ]
        ]
      }
    },
    {
      "type": "Feature",
      "properties": {
        "category": "building",
        "name": "MHB: ส่วนการแพทย์และอนามัย (Medical Treatment and Health Care Subdivision Building)",
        "description": ""
      },
      "geometry": {
        "type": "Polygon",
        "coordinates": [
          [
            [
              100.6192846,
              13.7590989
            ],
            [
              100.6194321,
              13.7589712
            ],
            [
              100.6196574,
              13.7592604
            ],
            [
              100.6194831,
              13.7593854
            ],
            [
              100.6192846,
              13.7590989
            ]
          ]
        ]
      }
    },
    {
      "type": "Feature",
      "properties": {
        "category": "building",
        "name": "OPB: สำนักงานอธิการบดี (Office of the President), AAB: อาคารสำนักบริการทางวิชาการ (Academic Services and Administration Building)",
        "description": ""
      },
      "geometry": {
        "type": "Polygon",
        "coordinates": [
          [
            [
              100.6186489,
              13.7588149
            ],
            [
              100.6188957,
              13.7582886
            ],
            [
              100.6192792,
              13.7585049
            ],
            [
              100.6190298,
              13.7589582
            ],
            [
              100.6186489,
              13.7588149
            ]
          ]
        ]
      }
    },
    {
      "type": "Feature",
      "properties": {
        "category": "building",
        "name": "RTB: อาคารรัตนธานี (Rattanathani Building)",
        "description": ""
      },
      "geometry": {
        "type": "Polygon",
        "coordinates": [
          [
            [
              100.6211232,
              13.7597082
            ],
            [
              100.6210696,
              13.7596196
            ],
            [
              100.621488,
              13.7593382
            ],
            [
              100.6215631,
              13.7594268
            ],
            [
              100.6211232,
              13.7597082
            ]
          ]
        ]
      }
    },
    {
      "type": "Feature",
      "properties": {
        "category": "building",
        "name": "RPB: สำนักพิมพ์ (Ramkhamhaeng University Press), (IIS): สถาบันการศึกษานานาชาติ ชั้น 7, 8, 9 (Institute of International Studies 7th, 8th, 9th Floor)",
        "description": ""
      },
      "geometry": {
        "type": "Polygon",
        "coordinates": [
          [
            [
              100.6221232,
              13.7598296
            ],
            [
              100.6219931,
              13.7598204
            ],
            [
              100.6215425,
              13.7591913
            ],
            [
              100.6216967,
              13.7590441
            ],
            [
              100.6222076,
              13.7593541
            ],
            [
              100.6221232,
              13.7598296
            ]
          ]
        ]
      }
    },
    {
      "type": "Feature",
      "properties": {
        "category": "building",
        "name": "PYB อาคารพิริยราม\n",
        "description": ""
      },
      "geometry": {
        "type": "Polygon",
        "coordinates": [
          [
            [
              100.6194938,
              13.7539526
            ],
            [
              100.6196386,
              13.753593
            ],
            [
              100.6202502,
              13.7538275
            ],
            [
              100.6200678,
              13.7541453
            ],
            [
              100.6194938,
              13.7539526
            ]
          ]
        ]
      }
    }
  ]
}